OBJECT_NAME,OBJECT_ID,EPOCH,MEAN_MOTION,ECCENTRICITY,INCLINATION,RA_OF_ASC_NODE,ARG_OF_PERICENTER,MEAN_ANOMALY,EPHEMERIS_TYPE,CLASSIFICATION_TYPE,NORAD_CAT_ID,ELEMENT_SET_NO,REV_AT_EPOCH,BSTAR,MEAN_MOTION_DOT,MEAN_MOTION_DDOT
GSAT0216 (GALILEO 20),2017-079B,2026-07-10T04:24:02.909664,1.70474478,.00048214,55.0690,220.8736,276.9654,83.0589,0,U,43056,999,5339,0,.9E-6,0
GSAT0217 (GALILEO 21),2017-079C,2026-07-11T13:51:21.849408,1.70473980,.0004474,55.0671,220.8331,291.1332,68.8993,0,U,43057,999,5340,0,.88E-6,0
GSAT0218 (GALILEO 22),2017-079D,2026-07-11T05:03:35.812224,1.70474393,.00053381,55.0671,220.8406,274.4477,85.5718,0,U,43058,999,5342,0,.89E-6,0
BEIDOU-3 M7 (C27),2018-003A,2026-07-10T10:33:21.407040,1.86228296,.00045175,54.3060,301.5047,98.3583,261.7116,0,U,43107,999,5778,0,-.68E-6,0
BEIDOU-3 M8 (C28),2018-003B,2026-07-11T10:59:43.624320,1.86231135,.00030081,54.2979,301.4505,258.7050,101.2808,0,U,43108,999,5781,0,-.67E-6,0
BEIDOU-3 M4 (C22),2018-018A,2026-07-11T08:44:41.290656,1.86231098,.0007464,56.6718,62.3521,27.7505,332.3554,0,U,43207,999,5719,0,-.44E-6,0
BEIDOU-3 M10 (C30),2018-029B,2026-07-11T01:06:22.713408,1.86229381,.00033248,54.1686,299.1412,36.7442,323.3010,0,U,43246,999,5632,0,-.64E-6,0
IRNSS-1I,2018-035A,2026-07-06T20:05:50.528832,1.00279237,.00180874,28.7973,73.8917,180.4002,27.0525,0,U,43286,999,3027,0,.79E-6,0
COSMOS 2527 (756),2018-053A,2026-07-11T11:40:18.544800,2.13102184,.0006594,65.5905,73.0975,230.9914,129.0146,0,U,43508,999,6279,0,-.19E-6,0
BEIDOU-2 IGSO-7 (C16),2018-057A,2026-07-01T21:23:21.693984,1.00246939,.01049468,55.1981,162.9292,237.8611,308.6338,0,U,43539,999,2927,0,-.33E-6,0
GSAT0221 (GALILEO 25),2018-060A,2026-07-09T22:36:05.857344,1.70476012,.0002608,57.1621,341.1668,288.2741,71.6944,0,U,43564,999,4955,0,-.79E-6,0
GSAT0222 (GALILEO 26),2018-060B,2026-07-11T08:01:48.054144,1.70475791,.00026912,57.1644,341.1329,235.7662,124.2009,0,U,43565,999,4962,0,-.85E-6,0
GSAT0219 (GALILEO 23),2018-060C,2026-07-09T05:01:07.936896,1.70476041,.00017911,57.1645,341.1918,303.0651,56.9164,0,U,43566,999,4956,0,-.76E-6,0
GSAT0220 (GALILEO 24),2018-060D,2026-07-10T14:28:43.498272,1.70475685,.00021178,57.1637,341.1546,293.2596,66.7130,0,U,43567,999,4957,0,-.81E-6,0
BEIDOU-3 M5 (C23),2018-062A,2026-07-11T06:28:52.961952,1.86228429,.0005674,54.0866,181.4855,292.2575,67.6835,0,U,43581,999,5408,0,.95E-6,0
BEIDOU-3 M12 (C26),2018-067A,2026-07-11T14:36:59.746176,1.86227688,.0007917,54.1816,180.2122,30.3589,329.6835,0,U,43602,999,5357,0,.88E-6,0
BEIDOU-3 M13 (C32),2018-072A,2026-07-11T03:53:09.264192,1.86231308,.0006304,56.6449,61.8695,333.0980,26.9349,0,U,43622,999,5310,0,-.44E-6,0
BEIDOU-3 M14 (C33),2018-072B,2026-07-11T00:39:22.936320,1.86231184,.0005467,56.6470,61.8674,11.2080,348.8695,0,U,43623,999,5309,0,-.45E-6,0
BEIDOU-3 M16 (C35),2018-078A,2026-07-09T00:49:44.028768,1.86232218,.0006721,54.0687,299.2200,40.1381,319.9343,0,U,43647,999,5256,0,-.64E-6,0
BEIDOU-3 G1 (C59),2018-085A,2026-07-11T17:44:23.080992,1.00272743,.000809,2.9269,96.7211,355.5910,263.3755,0,U,43683,999,2830,0,-.107E-5,0
COSMOS 2529 (757),2018-086A,2026-07-11T02:43:12.569952,2.13101972,.00121111,64.2969,191.7864,256.4030,103.4921,0,U,43687,999,5979,0,.113E-5,0
BEIDOU-3 M18 (C37),2018-093B,2026-07-11T08:05:21.921792,1.86226279,.0008028,54.1711,181.4695,322.2637,37.6808,0,U,43707,999,5198,0,.94E-6,0
BEIDOU-3 IGSO-1 (C38),2019-023A,2026-07-11T14:06:15.226272,1.00284023,.0025626,58.7293,37.3991,224.0790,358.6331,0,U,44204,999,745,0,-.206E-5,0
